{
  "type": "FeatureCollection",
  "name": "MIDI map places",
  "crs_note": "RFC 7946 WGS84 longitude/latitude coordinates",
  "features": [
    {"type":"Feature","id":"matarbari-coal-power-plant","properties":{"id":"matarbari-coal-power-plant","category":"project","icon":"project","name_en":"Matarbari Coal Power Plant","name_bn":"মাতারবাড়ি কয়লা বিদ্যুৎ কেন্দ্র","name_ja":"","description_en":"Matarbari 1 coal power plant (1.2 GW)","description_bn":"","description_ja":"","source":"Google Maps short link supplied in 2026 MIDI Map spreadsheet","source_url":"https://maps.app.goo.gl/wAiL9vgSeRhNJwbd8","accuracy":"point","reviewed":false,"missing_fields":["name_ja","description_bn","description_ja","image"]},"geometry":{"type":"Point","coordinates":[91.8848107,21.7005206]}},
    {"type":"Feature","id":"moheshkhali-hill-reserve-forest","properties":{"id":"moheshkhali-hill-reserve-forest","category":"environment","icon":"trees","name_en":"Moheshkhali Hill Reserve Forest","name_bn":"মহেশখালী পাহাড় সংরক্ষিত বন","name_ja":"","description_en":"","description_bn":"","description_ja":"","source":"Google Maps short link supplied in 2026 MIDI Map spreadsheet","source_url":"https://maps.app.goo.gl/BdztA2qZetr5Tczr6","accuracy":"point","reviewed":false,"missing_fields":["name_ja","description_en","description_bn","description_ja","image"]},"geometry":{"type":"Point","coordinates":[91.9588022,21.6188023]}},
    {"type":"Feature","id":"adinath-temple","properties":{"id":"adinath-temple","category":"worship","icon":"hindu-temple","name_en":"Adinath Temple","name_bn":"শ্রীশ্রী আদিনাথ মন্দির","name_ja":"","description_en":"","description_bn":"","description_ja":"","source":"Google Maps short link supplied in 2026 MIDI Map spreadsheet","source_url":"https://maps.app.goo.gl/mERfNHPSA8ymWtbB9","accuracy":"point","reviewed":false,"missing_fields":["name_ja","description_en","description_bn","description_ja","image"]},"geometry":{"type":"Point","coordinates":[91.9748347,21.5280655]}},
    {"type":"Feature","id":"sonadia-mangrove-forest","properties":{"id":"sonadia-mangrove-forest","category":"environment","icon":"trees","name_en":"Sonadia Mangrove Forest","name_bn":"সোনাদিয়া ম্যানগ্রোভ ফরেস্ট","name_ja":"","description_en":"","description_bn":"","description_ja":"","source":"Google Maps short link supplied in 2026 MIDI Map spreadsheet","source_url":"https://maps.app.goo.gl/E9uB8aq1CRGG1m8L6","accuracy":"point","reviewed":false,"missing_fields":["name_ja","description_en","description_bn","description_ja","image"]},"geometry":{"type":"Point","coordinates":[91.8634674,21.533675]}},
    {"type":"Feature","id":"moheshkhali-floating-lng-terminal","properties":{"id":"moheshkhali-floating-lng-terminal","category":"project","icon":"fsru","name_en":"Moheshkhali floating LNG Terminal (MLNG)","name_bn":"মহেশখালী ফ্লোটিং এলএনজি টার্মিনাল (এমএলএনজি)","name_ja":"","description_en":"Moheshkhali FSRU. Owner and operator: Excelerate Energy.","description_bn":"","description_ja":"","source":"Google Maps short link supplied in 2026 MIDI Map spreadsheet","source_url":"https://maps.app.goo.gl/NjyhGoFGsqjUghab6","accuracy":"point","reviewed":false,"missing_fields":["name_ja","description_bn","description_ja","image"]},"geometry":{"type":"Point","coordinates":[91.8190436,21.5363521]}},
    {"type":"Feature","id":"summit-floating-lng-terminal","properties":{"id":"summit-floating-lng-terminal","category":"project","icon":"fsru","name_en":"Summit floating LNG Terminal","name_bn":"","name_ja":"","description_en":"Summit FSRU. Owner: Summit (22% owned by JERA) and Mitsubishi. Operator: Excelerate Energy.","description_bn":"","description_ja":"","source":"Google Maps short link supplied in 2026 MIDI Map spreadsheet","source_url":"https://maps.app.goo.gl/L5SppiNEsApuxouAA","accuracy":"point","reviewed":false,"missing_fields":["name_bn","name_ja","description_bn","description_ja","image"]},"geometry":{"type":"Point","coordinates":[91.798469,21.554924]}},
    {"type":"Feature","id":"moheshkhali-coxs-bazar-road-bridges","properties":{"id":"moheshkhali-coxs-bazar-road-bridges","category":"transport","icon":"road","name_en":"Moheshkhali – Cox's Bazar Road and Bridges","name_bn":"","name_ja":"","description_en":"","description_bn":"","description_ja":"","source":"Google Maps coordinate supplied in 2026 MIDI Map spreadsheet","source_url":"https://maps.app.goo.gl/JvVBbecxAHRR7j89A","accuracy":"representative_point","reviewed":false,"missing_fields":["name_bn","name_ja","icon_detail","description_en","description_bn","description_ja","image"]},"geometry":{"type":"Point","coordinates":[91.977334,21.498004]}},
    {"type":"Feature","id":"matarbari-high-school","properties":{"id":"matarbari-high-school","category":"school","icon":"school","name_en":"Matarbari High School","name_bn":"মাতারবাড়ি উচ্চ বিদ্যালয়","name_ja":"","description_en":"School","description_bn":"","description_ja":"","source":"Google Maps short link supplied in 2026 MIDI Map spreadsheet","source_url":"https://maps.app.goo.gl/uJBXSKw56nowwEdn7","accuracy":"point","reviewed":false,"missing_fields":["name_ja","description_bn","description_ja","image"]},"geometry":{"type":"Point","coordinates":[91.8971197,21.7323753]}},
    {"type":"Feature","id":"bara-maheshkhali-government-primary-school","properties":{"id":"bara-maheshkhali-government-primary-school","category":"school","icon":"school","name_en":"Bara Maheshkhali Government Primary School","name_bn":"বড় মহেশখালী সরকারী প্রাথমিক বিদ্যালয়","name_ja":"","description_en":"School","description_bn":"","description_ja":"","source":"Google Maps short link supplied in 2026 MIDI Map spreadsheet","source_url":"https://maps.app.goo.gl/ZLisVKSABf6CNBZ89","accuracy":"point","reviewed":false,"missing_fields":["name_ja","description_bn","description_ja","image"]},"geometry":{"type":"Point","coordinates":[91.9472874,21.5423146]}},
    {"type":"Feature","id":"moheshkhali-island-high-school","properties":{"id":"moheshkhali-island-high-school","category":"school","icon":"school","name_en":"Moheshkhali Island High School","name_bn":"মহেশখালী দ্বীপ হাইস্কুল","name_ja":"","description_en":"School","description_bn":"","description_ja":"","source":"Google Maps short link supplied in 2026 MIDI Map spreadsheet","source_url":"https://maps.app.goo.gl/YXt6ub7JMsk5g2Jt9","accuracy":"point","reviewed":false,"missing_fields":["name_ja","description_bn","description_ja","image"]},"geometry":{"type":"Point","coordinates":[91.9434438,21.5339161]}},
    {"type":"Feature","id":"primary-school-disaster-shelter","properties":{"id":"primary-school-disaster-shelter","category":"school","icon":"school-shelter","name_en":"Primary School and Disaster Shelter","name_bn":"দক্ষিণমগডেইল সরকারি প্রাথমিক বিদ্যালয় ও বহুমুখী দুর্যোগ আশ্রয়কেন্দ্র মহেশখালী","name_ja":"","description_en":"School and disaster shelter","description_bn":"","description_ja":"","source":"Google Maps short link supplied in 2026 MIDI Map spreadsheet","source_url":"https://maps.app.goo.gl/pHi3nuR1xvNsFKJY9","accuracy":"point","reviewed":false,"missing_fields":["name_ja","description_bn","description_ja","image"]},"geometry":{"type":"Point","coordinates":[91.8879528,21.7173187]}},
    {"type":"Feature","id":"mosque-mohorakata","properties":{"id":"mosque-mohorakata","category":"worship","icon":"mosque","name_en":"Mosque","name_bn":"","name_ja":"","description_en":"Mosque","description_bn":"","description_ja":"","source":"Google Maps short link supplied in 2026 MIDI Map spreadsheet","source_url":"https://maps.app.goo.gl/91AVnUxMxQazYeCL8","accuracy":"point","reviewed":false,"missing_fields":["name_bn","name_ja","description_bn","description_ja","image"]},"geometry":{"type":"Point","coordinates":[91.900155,21.5956644]}},
    {"type":"Feature","id":"mosque-panirchhara","properties":{"id":"mosque-panirchhara","category":"worship","icon":"mosque","name_en":"Mosque","name_bn":"","name_ja":"","description_en":"Mosque","description_bn":"","description_ja":"","source":"Google Maps short link supplied in 2026 MIDI Map spreadsheet","source_url":"https://maps.app.goo.gl/Mq4ESUoYewYWRqLD7","accuracy":"point","reviewed":false,"missing_fields":["name_bn","name_ja","description_bn","description_ja","image"]},"geometry":{"type":"Point","coordinates":[91.9259433,21.5722282]}},
    {"type":"Feature","id":"mosque-dailarpara","properties":{"id":"mosque-dailarpara","category":"worship","icon":"mosque","name_en":"Mosque","name_bn":"","name_ja":"","description_en":"Mosque","description_bn":"","description_ja":"","source":"Google Maps short link supplied in 2026 MIDI Map spreadsheet","source_url":"https://maps.app.goo.gl/e2hiMVuqCXo5Jp3L9","accuracy":"point","reviewed":false,"missing_fields":["name_bn","name_ja","description_bn","description_ja","image"]},"geometry":{"type":"Point","coordinates":[91.9391821,21.5219318]}},
    {"type":"Feature","id":"mosque-maijpara","properties":{"id":"mosque-maijpara","category":"worship","icon":"mosque","name_en":"Mosque","name_bn":"","name_ja":"","description_en":"Mosque","description_bn":"","description_ja":"","source":"Google Maps short link supplied in 2026 MIDI Map spreadsheet","source_url":"https://maps.app.goo.gl/TpvtD58bzpgm26pC8","accuracy":"point","reviewed":false,"missing_fields":["name_bn","name_ja","description_bn","description_ja","image"]},"geometry":{"type":"Point","coordinates":[91.88536,21.7270018]}},
    {"type":"Feature","id":"salt-farms","properties":{"id":"salt-farms","category":"agriculture","icon":"salt","name_en":"Salt farms","name_bn":"","name_ja":"","description_en":"Salt farms","description_bn":"","description_ja":"","source":"Google Maps short link supplied in 2026 MIDI Map spreadsheet","source_url":"https://maps.app.goo.gl/AV5f9nTrRFwtBhbu9","accuracy":"representative_point","reviewed":false,"missing_fields":["name_bn","name_ja","description_bn","description_ja","image"]},"geometry":{"type":"Point","coordinates":[91.8475059,21.7652108]}}
  ]
}
