{
  "type": "FeatureCollection",
  "name": "MIDI confirmed affected areas",
  "crs_note": "RFC 7946 WGS84 longitude/latitude coordinates",
  "source_file": "MIDI bangladesh v2.kml",
  "features": [
    {
      "type": "Feature",
      "id": "midi-zone-1",
      "properties": {
        "id": "midi-zone-1",
        "category": "zone",
        "name_en": "Confirmed affected area — Zone 1",
        "name_bn": "",
        "name_ja": "",
        "description_en": "Affected-area boundary supplied in the confirmed MIDI Bangladesh v2 KML.",
        "description_bn": "",
        "description_ja": "",
        "source": "MIDI bangladesh v2.kml supplied by the campaign team",
        "source_url": "https://github.com/AdrianFalvey/midi/blob/main/MIDI%20bangladesh%20v2.kml",
        "source_feature_id": "03643C568342164B7D4E",
        "accuracy": "confirmed_boundary",
        "reviewed": true
      },
      "geometry": {
        "type": "Polygon",
        "coordinates": [
          [
            [
              91.86174947070326,
              21.6675558599351
            ],
            [
              91.86054172759762,
              21.66739921062311
            ],
            [
              91.85819459050637,
              21.66418794255183
            ],
            [
              91.85603212576969,
              21.65941128127289
            ],
            [
              91.85106030325576,
              21.65455518341216
            ],
            [
              91.8490383967539,
              21.65229648512407
            ],
            [
              91.8478085635376,
              21.64853307756395
            ],
            [
              91.84664539676461,
              21.64357049858779
            ],
            [
              91.84628708601578,
              21.63927546780604
            ],
            [
              91.84597645129631,
              21.63719623446303
            ],
            [
              91.84666472942145,
              21.6357662266661
            ],
            [
              91.8484478663231,
              21.63363070029055
            ],
            [
              91.84922971129348,
              21.63287750208392
            ],
            [
              91.85044838118223,
              21.63340151339792
            ],
            [
              91.85215115704638,
              21.63393712072789
            ],
            [
              91.85453526050999,
              21.63474134279573
            ],
            [
              91.85461074274757,
              21.64466117107274
            ],
            [
              91.85461140224315,
              21.65297110737298
            ],
            [
              91.860391672582,
              21.65293554408601
            ],
            [
              91.86043073310474,
              21.64143890102524
            ],
            [
              91.86428353323048,
              21.63710398133752
            ],
            [
              91.86987069405487,
              21.62918973164829
            ],
            [
              91.87745893735519,
              21.63177120793347
            ],
            [
              91.88420096138304,
              21.63599596127681
            ],
            [
              91.88851584402019,
              21.64369357058622
            ],
            [
              91.89025035616028,
              21.6495662138754
            ],
            [
              91.89024546301422,
              21.65169989206498
            ],
            [
              91.8898492667892,
              21.65328712790146
            ],
            [
              91.8897132786676,
              21.65395555272616
            ],
            [
              91.88917220521687,
              21.65565405581359
            ],
            [
              91.88770939237153,
              21.65884296903973
            ],
            [
              91.88621477741474,
              21.66125740786832
            ],
            [
              91.88465141315098,
              21.66261790914328
            ],
            [
              91.88290663962631,
              21.66218240673907
            ],
            [
              91.88056308602233,
              21.66163998655261
            ],
            [
              91.88053354897761,
              21.66172235149187
            ],
            [
              91.87654568416528,
              21.66400125391899
            ],
            [
              91.87164205078317,
              21.66487987160969
            ],
            [
              91.86650205602994,
              21.66575830530773
            ],
            [
              91.86481823596249,
              21.66606022819719
            ],
            [
              91.86413879026091,
              21.66625237041913
            ],
            [
              91.86174947070326,
              21.6675558599351
            ]
          ]
        ]
      }
    },
    {
      "type": "Feature",
      "id": "midi-zone-2",
      "properties": {
        "id": "midi-zone-2",
        "category": "zone",
        "name_en": "Confirmed affected area — Zone 2",
        "name_bn": "",
        "name_ja": "",
        "description_en": "Affected-area boundary supplied in the confirmed MIDI Bangladesh v2 KML.",
        "description_bn": "",
        "description_ja": "",
        "source": "MIDI bangladesh v2.kml supplied by the campaign team",
        "source_url": "https://github.com/AdrianFalvey/midi/blob/main/MIDI%20bangladesh%20v2.kml",
        "source_feature_id": "0FA07C6C714216C9A0C4",
        "accuracy": "confirmed_boundary",
        "reviewed": true
      },
      "geometry": {
        "type": "Polygon",
        "coordinates": [
          [
            [
              91.8626458131542,
              21.70115015537917
            ],
            [
              91.85795846846374,
              21.69976172359517
            ],
            [
              91.85486802852509,
              21.69669818469999
            ],
            [
              91.848584068461,
              21.68918227970544
            ],
            [
              91.85976240500024,
              21.68893545558735
            ],
            [
              91.85959577645572,
              21.68438382532737
            ],
            [
              91.85849557498835,
              21.68024006441629
            ],
            [
              91.85792673006142,
              21.67567904661232
            ],
            [
              91.85818322413377,
              21.67077220819125
            ],
            [
              91.86067587087331,
              21.66997420839075
            ],
            [
              91.8642801725603,
              21.66900003790823
            ],
            [
              91.87180735984805,
              21.66809535724023
            ],
            [
              91.87859192158889,
              21.66653415212822
            ],
            [
              91.8795720651662,
              21.66662743337332
            ],
            [
              91.87838424837119,
              21.66926757389686
            ],
            [
              91.87700957736824,
              21.67190640980078
            ],
            [
              91.87683830758621,
              21.67367693403035
            ],
            [
              91.8764076558194,
              21.67617401565241
            ],
            [
              91.87639697220006,
              21.67757340497649
            ],
            [
              91.87626825693073,
              21.67881226267798
            ],
            [
              91.87645513603964,
              21.68021222428684
            ],
            [
              91.87626160851683,
              21.68132081012558
            ],
            [
              91.87666852443552,
              21.68185941223718
            ],
            [
              91.87679125851949,
              21.68268932248031
            ],
            [
              91.8770488740858,
              21.68445816709774
            ],
            [
              91.87786317505159,
              21.68714240761037
            ],
            [
              91.87815000726756,
              21.68811921552656
            ],
            [
              91.87936150160138,
              21.68887921485487
            ],
            [
              91.88039135353563,
              21.68973445454785
            ],
            [
              91.88066346773492,
              21.69071706644454
            ],
            [
              91.88238011591916,
              21.69193086776358
            ],
            [
              91.88340109747242,
              21.69291678315639
            ],
            [
              91.88440185062049,
              21.69349614670454
            ],
            [
              91.88821114971945,
              21.69485906898146
            ],
            [
              91.8907002737709,
              21.69563987074865
            ],
            [
              91.8932777577241,
              21.69618112305848
            ],
            [
              91.89589196159464,
              21.6966600176082
            ],
            [
              91.89841967676402,
              21.69773110658292
            ],
            [
              91.9022326739585,
              21.69945648854781
            ],
            [
              91.90446325003533,
              21.70082873413533
            ],
            [
              91.90615325872868,
              21.70259954484076
            ],
            [
              91.9088974898286,
              21.70529835736857
            ],
            [
              91.91078584397214,
              21.70878876583434
            ],
            [
              91.91166592204931,
              21.71145842565705
            ],
            [
              91.91201309420913,
              21.71357957193643
            ],
            [
              91.91147616085104,
              21.71646820229392
            ],
            [
              91.90947481138217,
              21.72006165637846
            ],
            [
              91.90740166279753,
              21.7235656694436
            ],
            [
              91.90491819645028,
              21.72506074647383
            ],
            [
              91.89803025131626,
              21.7300107386884
            ],
            [
              91.89590742513873,
              21.72920584853094
            ],
            [
              91.89343802096967,
              21.72916580740774
            ],
            [
              91.89183505359479,
              21.72667074569846
            ],
            [
              91.88958235235432,
              21.72570493012242
            ],
            [
              91.88825374340203,
              21.7234455693177
            ],
            [
              91.88851381558578,
              21.7192199985437
            ],
            [
              91.8856548885663,
              21.71612113359379
            ],
            [
              91.88582149727681,
              21.71345288756687
            ],
            [
              91.88494987625512,
              21.7130643240665
            ],
            [
              91.88051961287665,
              21.71033919577645
            ],
            [
              91.87938647914285,
              21.71287540679043
            ],
            [
              91.87778960270569,
              21.71311472771598
            ],
            [
              91.87639879111747,
              21.71316286681074
            ],
            [
              91.87495643719276,
              21.71038717615029
            ],
            [
              91.87268998781755,
              21.70622359496983
            ],
            [
              91.86882684982973,
              21.70296917171295
            ],
            [
              91.8626458131542,
              21.70115015537917
            ]
          ]
        ]
      }
    },
    {
      "type": "Feature",
      "id": "midi-zone-3",
      "properties": {
        "id": "midi-zone-3",
        "category": "zone",
        "name_en": "Confirmed affected area — Zone 3",
        "name_bn": "",
        "name_ja": "",
        "description_en": "Affected-area boundary supplied in the confirmed MIDI Bangladesh v2 KML.",
        "description_bn": "",
        "description_ja": "",
        "source": "MIDI bangladesh v2.kml supplied by the campaign team",
        "source_url": "https://github.com/AdrianFalvey/midi/blob/main/MIDI%20bangladesh%20v2.kml",
        "source_feature_id": "01C489EFC4424621B18F",
        "accuracy": "confirmed_boundary",
        "reviewed": true
      },
      "geometry": {
        "type": "Polygon",
        "coordinates": [
          [
            [
              91.8928394179818,
              21.64797158934434
            ],
            [
              91.8908175042367,
              21.63606583241795
            ],
            [
              91.88577641245581,
              21.63117765195093
            ],
            [
              91.8789562827136,
              21.62820907731387
            ],
            [
              91.8729891097541,
              21.62563612293982
            ],
            [
              91.87170067747614,
              21.5771014117221
            ],
            [
              91.87681343898052,
              21.57650486853811
            ],
            [
              91.8832049908508,
              21.57788890230701
            ],
            [
              91.88981047815082,
              21.5816501815287
            ],
            [
              91.88917022481755,
              21.57689509271367
            ],
            [
              91.89428322987385,
              21.57510880362413
            ],
            [
              91.90749561736897,
              21.58144109670818
            ],
            [
              91.91985430903301,
              21.57766679656504
            ],
            [
              91.92044628657229,
              21.5958351749511
            ],
            [
              91.92074225791336,
              21.65407067515565
            ],
            [
              91.92087199072306,
              21.65766697329324
            ],
            [
              91.88972266534228,
              21.66174506116812
            ],
            [
              91.89198278645665,
              21.6549754495091
            ],
            [
              91.89256482432923,
              21.65153741358688
            ],
            [
              91.89277116634582,
              21.64984986171451
            ],
            [
              91.8928394179818,
              21.64797158934434
            ]
          ]
        ]
      }
    },
    {
      "type": "Feature",
      "id": "midi-zone-4",
      "properties": {
        "id": "midi-zone-4",
        "category": "zone",
        "name_en": "Confirmed affected area — Zone 4",
        "name_bn": "",
        "name_ja": "",
        "description_en": "Affected-area boundary supplied in the confirmed MIDI Bangladesh v2 KML.",
        "description_bn": "",
        "description_ja": "",
        "source": "MIDI bangladesh v2.kml supplied by the campaign team",
        "source_url": "https://github.com/AdrianFalvey/midi/blob/main/MIDI%20bangladesh%20v2.kml",
        "source_feature_id": "0885D4835D42462901C8",
        "accuracy": "confirmed_boundary",
        "reviewed": true
      },
      "geometry": {
        "type": "Polygon",
        "coordinates": [
          [
            [
              91.92558267528504,
              21.70604691457975
            ],
            [
              91.92147184057805,
              21.70616307320582
            ],
            [
              91.9152437908033,
              21.7091147106198
            ],
            [
              91.91244060966825,
              21.70355978078983
            ],
            [
              91.90820541655943,
              21.69950943625715
            ],
            [
              91.90378369553915,
              21.69650057282141
            ],
            [
              91.89898848503634,
              21.69401235138491
            ],
            [
              91.8920136930073,
              21.6923339123224
            ],
            [
              91.88597299302175,
              21.69065522174292
            ],
            [
              91.88310840661651,
              21.6888031109667
            ],
            [
              91.88130265896459,
              21.68590945484208
            ],
            [
              91.87980854914304,
              21.68052733607426
            ],
            [
              91.88098968883872,
              21.67534819751749
            ],
            [
              91.8846828841559,
              21.6709009472847
            ],
            [
              91.88837587281606,
              21.66581796624589
            ],
            [
              91.91804936211065,
              21.66137324288795
            ],
            [
              91.91964702397294,
              21.66159856235791
            ],
            [
              91.92041108665387,
              21.66414324748736
            ],
            [
              91.91951969910725,
              21.66668787908138
            ],
            [
              91.92028378440456,
              21.6700609029489
            ],
            [
              91.92174827212482,
              21.6702975791585
            ],
            [
              91.92181205801758,
              21.67698422492156
            ],
            [
              91.92130273879175,
              21.68242810182964
            ],
            [
              91.92136643157967,
              21.68307899275757
            ],
            [
              91.9208570720189,
              21.68739854792974
            ],
            [
              91.92111184581265,
              21.69065300310928
            ],
            [
              91.92257669338078,
              21.69627437728816
            ],
            [
              91.9237231243951,
              21.69893716749122
            ],
            [
              91.92455120983863,
              21.70213258049097
            ],
            [
              91.92558267528504,
              21.70604691457975
            ]
          ]
        ]
      }
    },
    {
      "type": "Feature",
      "id": "midi-zone-5",
      "properties": {
        "id": "midi-zone-5",
        "category": "zone",
        "name_en": "Confirmed affected area — Zone 5",
        "name_bn": "",
        "name_ja": "",
        "description_en": "Affected-area boundary supplied in the confirmed MIDI Bangladesh v2 KML.",
        "description_bn": "",
        "description_ja": "",
        "source": "MIDI bangladesh v2.kml supplied by the campaign team",
        "source_url": "https://github.com/AdrianFalvey/midi/blob/main/MIDI%20bangladesh%20v2.kml",
        "source_feature_id": "02ADE5F49C42462F031E",
        "accuracy": "confirmed_boundary",
        "reviewed": true
      },
      "geometry": {
        "type": "Polygon",
        "coordinates": [
          [
            [
              91.9442495411672,
              21.72303454814406
            ],
            [
              91.94379088225338,
              21.72748845808202
            ],
            [
              91.94312827668521,
              21.73251091681179
            ],
            [
              91.94302687350452,
              21.73819669849167
            ],
            [
              91.94256802376331,
              21.74032892169831
            ],
            [
              91.94119098283187,
              21.74269812537684
            ],
            [
              91.93899754064303,
              21.74326681450837
            ],
            [
              91.93558265835281,
              21.74265658643796
            ],
            [
              91.93408715367016,
              21.74149914055505
            ],
            [
              91.93026535838081,
              21.73648346893164
            ],
            [
              91.92760694932272,
              21.73339694555315
            ],
            [
              91.92440969869759,
              21.72992434227583
            ],
            [
              91.92157549248694,
              21.72912510938976
            ],
            [
              91.92010778980662,
              21.73011243043469
            ],
            [
              91.91798208063882,
              21.7323691742776
            ],
            [
              91.91656488805666,
              21.7338266676804
            ],
            [
              91.9139328950509,
              21.73566029105415
            ],
            [
              91.91206010530719,
              21.73641253166757
            ],
            [
              91.90952937744092,
              21.73622437993166
            ],
            [
              91.90775802218724,
              21.7348137696597
            ],
            [
              91.90639171593378,
              21.73265090280615
            ],
            [
              91.90634155547488,
              21.7292657141327
            ],
            [
              91.9071010842809,
              21.72639781496413
            ],
            [
              91.90968253172585,
              21.72320097168158
            ],
            [
              91.91312408485014,
              21.72052134282512
            ],
            [
              91.91509779742951,
              21.71976919687501
            ],
            [
              91.91535094114798,
              21.71685435526248
            ],
            [
              91.91616073141802,
              21.71346938384428
            ],
            [
              91.91858974754757,
              21.71318735888887
            ],
            [
              91.92046210550058,
              21.71210605273981
            ],
            [
              91.92309350279436,
              21.71196499468747
            ],
            [
              91.92653457898666,
              21.71191788003724
            ],
            [
              91.92699002743282,
              21.7121999491518
            ],
            [
              91.92866001330454,
              21.71299910333121
            ],
            [
              91.9312914969466,
              21.71323400933063
            ],
            [
              91.93275901641526,
              21.71257569685758
            ],
            [
              91.93447958295715,
              21.71210539668199
            ],
            [
              91.9363014410461,
              21.71238730045998
            ],
            [
              91.9382246042248,
              21.71323334960409
            ],
            [
              91.93873087745799,
              21.71497285016488
            ],
            [
              91.93997559183634,
              21.71563124540033
            ],
            [
              91.94510508262879,
              21.71643449107726
            ],
            [
              91.9442495411672,
              21.72303454814406
            ]
          ]
        ]
      }
    },
    {
      "type": "Feature",
      "id": "midi-zone-6",
      "properties": {
        "id": "midi-zone-6",
        "category": "zone",
        "name_en": "Confirmed affected area — Zone 6",
        "name_bn": "",
        "name_ja": "",
        "description_en": "Affected-area boundary supplied in the confirmed MIDI Bangladesh v2 KML.",
        "description_bn": "",
        "description_ja": "",
        "source": "MIDI bangladesh v2.kml supplied by the campaign team",
        "source_url": "https://github.com/AdrianFalvey/midi/blob/main/MIDI%20bangladesh%20v2.kml",
        "source_feature_id": "038E5F8010424EEA0CD9",
        "accuracy": "confirmed_boundary",
        "reviewed": true
      },
      "geometry": {
        "type": "Polygon",
        "coordinates": [
          [
            [
              91.90352368594957,
              21.74501339649226
            ],
            [
              91.90376259714583,
              21.74670199778906
            ],
            [
              91.91141108813574,
              21.74611845276344
            ],
            [
              91.91501388769403,
              21.74970472710667
            ],
            [
              91.91632483490649,
              21.75134729485807
            ],
            [
              91.91688838137847,
              21.75273199416399
            ],
            [
              91.91633837468471,
              21.75411961063665
            ],
            [
              91.91443218929287,
              21.75577211330521
            ],
            [
              91.91200838923496,
              21.75759811041735
            ],
            [
              91.90991658475913,
              21.75929479554898
            ],
            [
              91.90833313603727,
              21.76051065804775
            ],
            [
              91.90563764145509,
              21.76307914340386
            ],
            [
              91.90419026615668,
              21.76286746678645
            ],
            [
              91.90143813760933,
              21.7628273976527
            ],
            [
              91.8985504091427,
              21.76422264297296
            ],
            [
              91.89826658349604,
              21.76287970834592
            ],
            [
              91.89747363867983,
              21.76288199175456
            ],
            [
              91.89499864675602,
              21.76202269894475
            ],
            [
              91.89149608486099,
              21.7607330826897
            ],
            [
              91.88939341626028,
              21.75961271695727
            ],
            [
              91.88873700313674,
              21.75857489432572
            ],
            [
              91.88718326679404,
              21.75411729934092
            ],
            [
              91.88797472099105,
              21.75389845117991
            ],
            [
              91.88477885753242,
              21.74628292952969
            ],
            [
              91.90352368594957,
              21.74501339649226
            ]
          ]
        ]
      }
    }
  ]
}
